0 FENGYUN 1C DEB
1 32222U 99025CVU 13281.42276177  .00002055  00000-0  10721-2 0  2489
2 32222 099.1319 342.5552 0110274 052.1550 308.9965 14.12557069318578
0 FENGYUN 1C DEB
1 32222U 99025CVU 13283.97269886  .00002108  00000-0  10992-2 0  2490
2 32222 099.1317 345.1526 0109943 044.3837 316.6081 14.12568853318936
0 FENGYUN 1C DEB
1 32222U 99025CVU 13286.02680245  .00002134  00000-0  11127-2 0  2507
2 32222 099.1296 347.2387 0109612 038.2376 322.6494 14.12578519319221
0 FENGYUN 1C DEB
1 32222U 99025CVU 13289.35583392  .00002314  00000-0  12052-2 0  2510
2 32222 099.1246 350.6150 0109021 028.7843 331.9574 14.12596919319696
0 FENGYUN 1C DEB
1 32222U 99025CVU 13290.41827629  .00002371  00000-0  12345-2 0  2522
2 32222 099.1274 351.7060 0108710 025.8232 334.8586 14.12603227319846
0 FENGYUN 1C DEB
1 32222U 99025CVU 13293.39310081  .00002522  00000-0  13111-2 0  2532
2 32222 099.1320 354.7487 0108734 017.4775 343.0778 14.12621129320263
0 FENGYUN 1C DEB
1 32222U 99025CVU 13295.37628409  .00002605  00000-0  13534-2 0  2540
2 32222 099.1315 356.7694 0108466 012.2135 348.2006 14.12633290320548
